{"type": "FeatureCollection", "features": [ {"type": "Feature", "properties": {"norad_id": 36045, "name": "COSMOS 2251 DEB", "group": "cosmos-2251-debris", "lat": 45.48671172812846, "lon": 80.77880395303154, "alt_km": 627.9887474457046, "timestamp": "2025-12-10T11:33:53.780987+00:00", "meta": {"OBJECT_NAME": "COSMOS 2251 DEB", "OBJECT_ID": "1993-036AXG", "EPOCH": "2025-12-09T12:28:41.789568", "MEAN_MOTION": 14.69724058, "ECCENTRICITY": 0.00485126, "INCLINATION": 73.764, "RA_OF_ASC_NODE": 65.432, "ARG_OF_PERICENTER": 80.3147, "MEAN_ANOMALY": 280.3498, "EPHEMERIS_TYPE": 0, "CLASSIFICATION_TYPE": "U", "NORAD_CAT_ID": 36045, "ELEMENT_SET_NO": 999, "REV_AT_EPOCH": 8341, "BSTAR": 0.003329583, "MEAN_MOTION_DOT": 0.00020233, "MEAN_MOTION_DDOT": 0}, "tle": {"line1": "1 36045U 93036AXG 25343.51992812  .00020233  00000+0  33296-2 0  9997", "line2": "2 36045  73.7640  65.4320 0048512  80.3147 280.3498 14.69724058 83416"}}, "geometry": {"type": "Point", "coordinates": [80.77880395303154, 45.48671172812846]}}, {"type": "Feature", "properties": {"norad_id": 36046, "name": "COSMOS 2251 DEB", "group": "cosmos-2251-debris", "lat": 31.613491353656975, "lon": 90.6889823227525, "alt_km": 666.6890191666362, "timestamp": "2025-12-10T11:33:53.780997+00:00", "meta": {"OBJECT_NAME": "COSMOS 2251 DEB", "OBJECT_ID": "1993-036AXH", "EPOCH": "2025-12-07T14:53:37.140000", "MEAN_MOTION": 14.65217113, "ECCENTRICITY": 0.00554066, "INCLINATION": 74.0172, "RA_OF_ASC_NODE": 286.36, "ARG_OF_PERICENTER": 73.7608, "MEAN_ANOMALY": 105.7765, "EPHEMERIS_TYPE": 0, "CLASSIFICATION_TYPE": "U", "NORAD_CAT_ID": 36046, "ELEMENT_SET_NO": 999, "REV_AT_EPOCH": 63928, "BSTAR": 0.0010874052, "MEAN_MOTION_DOT": 5.963e-05, "MEAN_MOTION_DDOT": 0}, "tle": {"line1": "1 36046U 93036AXH 25341.62056875  .00005963  00000+0  10874-2 0  9998", "line2": "2 36046  74.0172 286.3600 0055406  73.7608 105.7765 14.65217113639288"}}, "geometry": {"type": "Point", "coordinates": [90.6889823227525, 31.613491353656975]}}, {"type": "Feature", "properties": {"norad_id": 36047, "name": "COSMOS 2251 DEB", "group": "cosmos-2251-debris", "lat": -9.088595930296059, "lon": 161.3417901164831, "alt_km": 589.4133694719803, "timestamp": "2025-12-10T11:33:53.781016+00:00", "meta": {"OBJECT_NAME": "COSMOS 2251 DEB", "OBJECT_ID": "1993-036AXJ", "EPOCH": "2025-12-09T17:03:49.506624", "MEAN_MOTION": 14.95728614, "ECCENTRICITY": 0.0008161, "INCLINATION": 74.0362, "RA_OF_ASC_NODE": 340.2728, "ARG_OF_PERICENTER": 6.5985, "MEAN_ANOMALY": 353.5306, "EPHEMERIS_TYPE": 0, "CLASSIFICATION_TYPE": "U", "NORAD_CAT_ID": 36047, "ELEMENT_SET_NO": 999, "REV_AT_EPOCH": 65894, "BSTAR": 0.0027577, "MEAN_MOTION_DOT": 0.00030846, "MEAN_MOTION_DDOT": 0}, "tle": {"line1": "1 36047U 93036AXJ 25343.71098966  .00030846  00000+0  27577-2 0  9994", "line2": "2 36047  74.0362 340.2728 0008161   6.5985 353.5306 14.95728614658943"}}, "geometry": {"type": "Point", "coordinates": [161.3417901164831, -9.088595930296059]}}, {"type": "Feature", "properties": {"norad_id": 36048, "name": "COSMOS 2251 DEB", "group": "cosmos-2251-debris", "lat": -47.08785177219096, "lon": 141.34581759116364, "alt_km": 782.7148303248687, "timestamp": "2025-12-10T11:33:53.781028+00:00", "meta": {"OBJECT_NAME": "COSMOS 2251 DEB", "OBJECT_ID": "1993-036AXK", "EPOCH": "2025-12-09T15:17:11.975424", "MEAN_MOTION": 14.37843882, "ECCENTRICITY": 0.0026484, "INCLINATION": 74.0566, "RA_OF_ASC_NODE": 304.9908, "ARG_OF_PERICENTER": 355.6698, "MEAN_ANOMALY": 182.3285, "EPHEMERIS_TYPE": 0, "CLASSIFICATION_TYPE": "U", "NORAD_CAT_ID": 36048, "ELEMENT_SET_NO": 999, "REV_AT_EPOCH": 85457, "BSTAR": 0.00052357, "MEAN_MOTION_DOT": 1.559e-05, "MEAN_MOTION_DDOT": 0}, "tle": {"line1": "1 36048U 93036AXK 25343.63694416  .00001559  00000+0  52357-3 0  9992", "line2": "2 36048  74.0566 304.9908 0026484 355.6698 182.3285 14.37843882854576"}}, "geometry": {"type": "Point", "coordinates": [141.34581759116364, -47.08785177219096]}}, {"type": "Feature", "properties": {"norad_id": 36049, "name": "COSMOS 2251 DEB", "group": "cosmos-2251-debris", "lat": 39.44666605171112, "lon": -70.11991595639493, "alt_km": 680.3880328955302, "timestamp": "2025-12-10T11:33:53.781038+00:00", "meta": {"OBJECT_NAME": "COSMOS 2251 DEB", "OBJECT_ID": "1993-036AXL", "EPOCH": "2025-12-08T09:40:01.147584", "MEAN_MOTION": 14.62047185, "ECCENTRICITY": 0.00109946, "INCLINATION": 74.0303, "RA_OF_ASC_NODE": 127.4878, "ARG_OF_PERICENTER": 212.8558, "MEAN_ANOMALY": 147.1926, "EPHEMERIS_TYPE": 0, "CLASSIFICATION_TYPE": "U", "NORAD_CAT_ID": 36049, "ELEMENT_SET_NO": 999, "REV_AT_EPOCH": 85301, "BSTAR": 0.0019302227, "MEAN_MOTION_DOT": 9.681e-05, "MEAN_MOTION_DDOT": 0}, "tle": {"line1": "1 36049U 93036AXL 25342.40279106  .00009681  00000+0  19302-2 0  9998", "line2": "2 36049  74.0303 127.4878 0010994 212.8558 147.1926 14.62047185853017"}}, "geometry": {"type": "Point", "coordinates": [-70.11991595639493, 39.44666605171112]}}, {"type": "Feature", "properties": {"norad_id": 36050, "name": "COSMOS 2251 DEB", "group": "cosmos-2251-debris", "lat": -67.4161594995252, "lon": 62.134897117434086, "alt_km": 514.5922117932732, "timestamp": "2025-12-10T11:33:53.781048+00:00", "meta": {"OBJECT_NAME": "COSMOS 2251 DEB", "OBJECT_ID": "1993-036AXM", "EPOCH": "2025-12-06T21:38:56.903136", "MEAN_MOTION": 15.00909589, "ECCENTRICITY": 0.00890187, "INCLINATION": 74.0309, "RA_OF_ASC_NODE": 205.9114, "ARG_OF_PERICENTER": 286.8649, "MEAN_ANOMALY": 72.279, "EPHEMERIS_TYPE": 0, "CLASSIFICATION_TYPE": "U", "NORAD_CAT_ID": 36050, "ELEMENT_SET_NO": 999, "REV_AT_EPOCH": 66947, "BSTAR": 0.00085100321, "MEAN_MOTION_DOT": 0.00011772, "MEAN_MOTION_DDOT": 0}, "tle": {"line1": "1 36050U 93036AXM 25340.90204749  .00011772  00000+0  85100-3 0  9998", "line2": "2 36050  74.0309 205.9114 0089018 286.8649  72.2790 15.00909589669475"}}, "geometry": {"type": "Point", "coordinates": [62.134897117434086, -67.4161594995252]}}, {"type": "Feature", "properties": {"norad_id": 36053, "name": "COSMOS 2251 DEB", "group": "cosmos-2251-debris", "lat": 21.60826194986375, "lon": -29.562805487729293, "alt_km": 687.0339099544244, "timestamp": "2025-12-10T11:33:53.781081+00:00", "meta": {"OBJECT_NAME": "COSMOS 2251 DEB", "OBJECT_ID": "1993-036AXQ", "EPOCH": "2025-12-09T11:46:46.363296", "MEAN_MOTION": 14.57102394, "ECCENTRICITY": 0.00328266, "INCLINATION": 73.8711, "RA_OF_ASC_NODE": 158.9194, "ARG_OF_PERICENTER": 109.1774, "MEAN_ANOMALY": 251.2947, "EPHEMERIS_TYPE": 0, "CLASSIFICATION_TYPE": "U", "NORAD_CAT_ID": 36053, "ELEMENT_SET_NO": 999, "REV_AT_EPOCH": 87397, "BSTAR": 0.0022318191, "MEAN_MOTION_DOT": 0.00010116, "MEAN_MOTION_DDOT": 0}, "tle": {"line1": "1 36053U 93036AXQ 25343.49081439  .00010116  00000+0  22318-2 0  9999", "line2": "2 36053  73.8711 158.9194 0032826 109.1774 251.2947 14.57102394873973"}}, "geometry": {"type": "Point", "coordinates": [-29.562805487729293, 21.60826194986375]}}, {"type": "Feature", "properties": {"norad_id": 36058, "name": "COSMOS 2251 DEB", "group": "cosmos-2251-debris", "lat": -73.92791938785714, "lon": -46.17242433531553, "alt_km": 709.236040371, "timestamp": "2025-12-10T11:33:53.781093+00:00", "meta": {"OBJECT_NAME": "COSMOS 2251 DEB", "OBJECT_ID": "1993-036AXV", "EPOCH": "2025-12-09T21:09:28.030752", "MEAN_MOTION": 14.58669067, "ECCENTRICITY": 0.0044781, "INCLINATION": 74.0233, "RA_OF_ASC_NODE": 38.9054, "ARG_OF_PERICENTER": 173.9779, "MEAN_ANOMALY": 186.1934, "EPHEMERIS_TYPE": 0, "CLASSIFICATION_TYPE": "U", "NORAD_CAT_ID": 36058, "ELEMENT_SET_NO": 999, "REV_AT_EPOCH": 66069, "BSTAR": 0.00079292, "MEAN_MOTION_DOT": 3.72e-05, "MEAN_MOTION_DDOT": 0}, "tle": {"line1": "1 36058U 93036AXV 25343.88157443  .00003720  00000+0  79292-3 0  9993", "line2": "2 36058  74.0233  38.9054 0044781 173.9779 186.1934 14.58669067660690"}}, "geometry": {"type": "Point", "coordinates": [-46.17242433531553, -73.92791938785714]}}, {"type": "Feature", "properties": {"norad_id": 36060, "name": "COSMOS 2251 DEB", "group": "cosmos-2251-debris", "lat": -48.1312781570625, "lon": -139.88056009570974, "alt_km": 748.7278046470892, "timestamp": "2025-12-10T11:33:53.781102+00:00", "meta": {"OBJECT_NAME": "COSMOS 2251 DEB", "OBJECT_ID": "1993-036AXX", "EPOCH": "2025-12-09T10:49:25.276800", "MEAN_MOTION": 14.41988994, "ECCENTRICITY": 0.00151666, "INCLINATION": 74.0292, "RA_OF_ASC_NODE": 240.6647, "ARG_OF_PERICENTER": 338.0669, "MEAN_ANOMALY": 21.9836, "EPHEMERIS_TYPE": 0, "CLASSIFICATION_TYPE": "U", "NORAD_CAT_ID": 36060, "ELEMENT_SET_NO": 999, "REV_AT_EPOCH": 84962, "BSTAR": 0.00059597173, "MEAN_MOTION_DOT": 1.931e-05, "MEAN_MOTION_DDOT": 0}, "tle": {"line1": "1 36060U 93036AXX 25343.45098700  .00001931  00000+0  59597-3 0  9997", "line2": "2 36060  74.0292 240.6647 0015166 338.0669  21.9836 14.41988994849629"}}, "geometry": {"type": "Point", "coordinates": [-139.88056009570974, -48.1312781570625]}}, {"type": "Feature", "properties": {"norad_id": 36061, "name": "COSMOS 2251 DEB", "group": "cosmos-2251-debris", "lat": -17.974911797329064, "lon": -170.77230088465305, "alt_km": 791.1116996255842, "timestamp": "2025-12-10T11:33:53.781112+00:00", "meta": {"OBJECT_NAME": "COSMOS 2251 DEB", "OBJECT_ID": "1993-036AXY", "EPOCH": "2025-12-08T08:24:20.190816", "MEAN_MOTION": 14.33698686, "ECCENTRICITY": 0.00368149, "INCLINATION": 74.0243, "RA_OF_ASC_NODE": 7.7948, "ARG_OF_PERICENTER": 97.1574, "MEAN_ANOMALY": 263.3766, "EPHEMERIS_TYPE": 0, "CLASSIFICATION_TYPE": "U", "NORAD_CAT_ID": 36061, "ELEMENT_SET_NO": 999, "REV_AT_EPOCH": 65041, "BSTAR": 0.00050814435, "MEAN_MOTION_DOT": 1.395e-05, "MEAN_MOTION_DDOT": 0}, "tle": {"line1": "1 36061U 93036AXY 25342.35023369  .00001395  00000+0  50814-3 0  9992", "line2": "2 36061  74.0243   7.7948 0036814  97.1574 263.3766 14.33698686650411"}}, "geometry": {"type": "Point", "coordinates": [-170.77230088465305, -17.974911797329064]}}]}